{
  "type": "FeatureCollection",
  "features": [
    {
      "type": "Feature",
      "properties": {
        "norad_id": 22490,
        "name": "SCD 1",
        "group": "resource",
        "lat": 18.714174421384598,
        "lon": -18.544365220140513,
        "alt_km": 712.6378981738753,
        "timestamp": "2025-12-24T03:53:29.298717+00:00",
        "meta_object_name": "SCD 1",
        "meta_object_id": "1993-009B",
        "meta_epoch": "2025-12-23T15:55:07.988160",
        "meta_mean_motion": 14.4600587,
        "meta_eccentricity": 0.0042179,
        "meta_inclination": 24.9677,
        "meta_ra_of_asc_node": 211.2536,
        "meta_arg_of_pericenter": 80.4566,
        "meta_mean_anomaly": 327.5198,
        "meta_ephemeris_type": 0,
        "meta_classification_type": "U",
        "meta_norad_cat_id": 22490,
        "meta_element_set_no": 999,
        "meta_rev_at_epoch": 73568,
        "meta_bstar": 7.4114e-05,
        "meta_mean_motion_dot": 4.56e-06,
        "meta_mean_motion_ddot": 0,
        "tle_line1": "1 22490U 93009B   25357.66328690  .00000456  00000+0  74114-4 0  9995",
        "tle_line2": "2 22490  24.9677 211.2536 0042179  80.4566 327.5198 14.46005870735685"
      },
      "geometry": {
        "type": "Point",
        "coordinates": [
          -18.544365220140513,
          18.714174421384598
        ]
      }
    },
    {
      "type": "Feature",
      "properties": {
        "norad_id": 25397,
        "name": "TECHSAT 1B (GO-32)",
        "group": "resource",
        "lat": 27.155689880912597,
        "lon": -23.021056035685096,
        "alt_km": 808.2168797240975,
        "timestamp": "2025-12-24T03:53:29.298746+00:00",
        "meta_object_name": "TECHSAT 1B (GO-32)",
        "meta_object_id": "1998-043D",
        "meta_epoch": "2025-12-23T05:50:46.136256",
        "meta_mean_motion": 14.24379829,
        "meta_eccentricity": 0.00017253,
        "meta_inclination": 98.9932,
        "meta_ra_of_asc_node": 340.6986,
        "meta_arg_of_pericenter": 40.4512,
        "meta_mean_anomaly": 319.6794,
        "meta_ephemeris_type": 0,
        "meta_classification_type": "U",
        "meta_norad_cat_id": 25397,
        "meta_element_set_no": 999,
        "meta_rev_at_epoch": 42628,
        "meta_bstar": 5.1678998e-05,
        "meta_mean_motion_dot": 7.3e-07,
        "meta_mean_motion_ddot": 0,
        "tle_line1": "1 25397U 98043D   25357.24358954  .00000073  00000+0  51679-4 0  9993",
        "tle_line2": "2 25397  98.9932 340.6986 0001725  40.4512 319.6794 14.24379829426285"
      },
      "geometry": {
        "type": "Point",
        "coordinates": [
          -23.021056035685096,
          27.155689880912597
        ]
      }
    },
    {
      "type": "Feature",
      "properties": {
        "norad_id": 25504,
        "name": "SCD 2",
        "group": "resource",
        "lat": 16.246466027317922,
        "lon": -147.25047200706973,
        "alt_km": 731.0603543658199,
        "timestamp": "2025-12-24T03:53:29.298763+00:00",
        "meta_object_name": "SCD 2",
        "meta_object_id": "1998-060A",
        "meta_epoch": "2025-12-23T12:57:10.151712",
        "meta_mean_motion": 14.45428919,
        "meta_eccentricity": 0.0017055,
        "meta_inclination": 24.9952,
        "meta_ra_of_asc_node": 75.302,
        "meta_arg_of_pericenter": 67.3955,
        "meta_mean_anomaly": 65.4136,
        "meta_ephemeris_type": 0,
        "meta_classification_type": "U",
        "meta_norad_cat_id": 25504,
        "meta_element_set_no": 999,
        "meta_rev_at_epoch": 43488,
        "meta_bstar": 6.7652e-05,
        "meta_mean_motion_dot": 4.24e-06,
        "meta_mean_motion_ddot": 0,
        "tle_line1": "1 25504U 98060A   25357.53970083  .00000424  00000+0  67652-4 0  9995",
        "tle_line2": "2 25504  24.9952  75.3020 0017055  67.3955  65.4136 14.45428919434888"
      },
      "geometry": {
        "type": "Point",
        "coordinates": [
          -147.25047200706973,
          16.246466027317922
        ]
      }
    },
    {
      "type": "Feature",
      "properties": {
        "norad_id": 25757,
        "name": "DLR-TUBSAT",
        "group": "resource",
        "lat": -44.702084959643706,
        "lon": -8.300087882032567,
        "alt_km": 733.9052330370878,
        "timestamp": "2025-12-24T03:53:29.298776+00:00",
        "meta_object_name": "DLR-TUBSAT",
        "meta_object_id": "1999-029B",
        "meta_epoch": "2025-12-17T13:22:10.787520",
        "meta_mean_motion": 14.52359578,
        "meta_eccentricity": 0.00141996,
        "meta_inclination": 98.6566,
        "meta_ra_of_asc_node": 336.2196,
        "meta_arg_of_pericenter": 177.8976,
        "meta_mean_anomaly": 182.2281,
        "meta_ephemeris_type": 0,
        "meta_classification_type": "U",
        "meta_norad_cat_id": 25757,
        "meta_element_set_no": 999,
        "meta_rev_at_epoch": 40688,
        "meta_bstar": 3.7650132e-05,
        "meta_mean_motion_dot": 1.05e-06,
        "meta_mean_motion_ddot": 0,
        "tle_line1": "1 25757U 99029B   25351.55706930  .00000105  00000+0  37650-4 0  9996",
        "tle_line2": "2 25757  98.6566 336.2196 0014199 177.8976 182.2281 14.52359578406886"
      },
      "geometry": {
        "type": "Point",
        "coordinates": [
          -8.300087882032567,
          -44.702084959643706
        ]
      }
    },
    {
      "type": "Feature",
      "properties": {
        "norad_id": 25994,
        "name": "TERRA",
        "group": "resource",
        "lat": 8.00274176008842,
        "lon": 48.297448501140636,
        "alt_km": 691.0077179893779,
        "timestamp": "2025-12-24T03:53:29.298788+00:00",
        "meta_object_name": "TERRA",
        "meta_object_id": "1999-068A",
        "meta_epoch": "2025-12-23T18:37:06.501216",
        "meta_mean_motion": 14.60913659,
        "meta_eccentricity": 0.0003456,
        "meta_inclination": 97.9732,
        "meta_ra_of_asc_node": 49.0544,
        "meta_arg_of_pericenter": 72.4673,
        "meta_mean_anomaly": 64.9226,
        "meta_ephemeris_type": 0,
        "meta_classification_type": "U",
        "meta_norad_cat_id": 25994,
        "meta_element_set_no": 999,
        "meta_rev_at_epoch": 38399,
        "meta_bstar": 0.00010097,
        "meta_mean_motion_dot": 4.5e-06,
        "meta_mean_motion_ddot": 0,
        "tle_line1": "1 25994U 99068A   25357.77576969  .00000450  00000+0  10097-3 0  9997",
        "tle_line2": "2 25994  97.9732  49.0544 0003456  72.4673  64.9226 14.60913659383996"
      },
      "geometry": {
        "type": "Point",
        "coordinates": [
          48.297448501140636,
          8.00274176008842
        ]
      }
    },
    {
      "type": "Feature",
      "properties": {
        "norad_id": 27004,
        "name": "MAROC-TUBSAT",
        "group": "resource",
        "lat": -54.70638012116049,
        "lon": -27.31261993396134,
        "alt_km": 991.4754954522214,
        "timestamp": "2025-12-24T03:53:29.298801+00:00",
        "meta_object_name": "MAROC-TUBSAT",
        "meta_object_id": "2001-056D",
        "meta_epoch": "2025-12-23T18:03:42.605280",
        "meta_mean_motion": 13.7025342,
        "meta_eccentricity": 0.0019239,
        "meta_inclination": 99.7916,
        "meta_ra_of_asc_node": 166.3905,
        "meta_arg_of_pericenter": 230.9603,
        "meta_mean_anomaly": 145.5549,
        "meta_ephemeris_type": 0,
        "meta_classification_type": "U",
        "meta_norad_cat_id": 27004,
        "meta_element_set_no": 999,
        "meta_rev_at_epoch": 20216,
        "meta_bstar": 2.1393e-05,
        "meta_mean_motion_dot": -2.8e-07,
        "meta_mean_motion_ddot": 0,
        "tle_line1": "1 27004U 01056D   25357.75257645 -.00000028  00000+0  21393-4 0  9990",
        "tle_line2": "2 27004  99.7916 166.3905 0019239 230.9603 145.5549 13.70253420202164"
      },
      "geometry": {
        "type": "Point",
        "coordinates": [
          -27.31261993396134,
          -54.70638012116049
        ]
      }
    },
    {
      "type": "Feature",
      "properties": {
        "norad_id": 27424,
        "name": "AQUA",
        "group": "resource",
        "lat": -76.08943784192762,
        "lon": -4.116899513503406,
        "alt_km": 695.6596336399862,
        "timestamp": "2025-12-24T03:53:29.298812+00:00",
        "meta_object_name": "AQUA",
        "meta_object_id": "2002-022A",
        "meta_epoch": "2025-12-23T20:08:03.450048",
        "meta_mean_motion": 14.61824731,
        "meta_eccentricity": 0.0001509,
        "meta_inclination": 98.4053,
        "meta_ra_of_asc_node": 318.8992,
        "meta_arg_of_pericenter": 108.9448,
        "meta_mean_anomaly": 272.2576,
        "meta_ephemeris_type": 0,
        "meta_classification_type": "U",
        "meta_norad_cat_id": 27424,
        "meta_element_set_no": 999,
        "meta_rev_at_epoch": 25765,
        "meta_bstar": 0.00020598,
        "meta_mean_motion_dot": 9.8e-06,
        "meta_mean_motion_ddot": 0,
        "tle_line1": "1 27424U 02022A   25357.83892882  .00000980  00000+0  20598-3 0  9998",
        "tle_line2": "2 27424  98.4053 318.8992 0001509 108.9448 272.2576 14.61824731257652"
      },
      "geometry": {
        "type": "Point",
        "coordinates": [
          -4.116899513503406,
          -76.08943784192762
        ]
      }
    }
  ]
}